ASTROCAST-0402          
1 55109U 23001DE  26068.80661100  .00010930  00000+0  41835-3 0  9996
2 55109  97.5556 160.6821 0004209 216.6984 143.3966 15.26734153129364
STARLINK-31755          
1 59607U 24080G   26068.27237507  .00000942  00000+0  43761-4 0  9995
2 59607  43.0029  44.1685 0001021 284.0314  76.0424 15.27570554104426
