[{"OBJECT_NAME":"ASTROCAST-0402","OBJECT_ID":"2023-001DE","EPOCH":"2026-03-09T19:21:31.190400","MEAN_MOTION":15.26734153,"ECCENTRICITY":0.00042092,"INCLINATION":97.5556,"RA_OF_ASC_NODE":160.6821,"ARG_OF_PERICENTER":216.6984,"MEAN_ANOMALY":143.3966,"EPHEMERIS_TYPE":0,"CLASSIFICATION_TYPE":"U","NORAD_CAT_ID":55109,"ELEMENT_SET_NO":999,"REV_AT_EPOCH":12936,"BSTAR":0.00041835119,"MEAN_MOTION_DOT":0.0001093,"MEAN_MOTION_DDOT":0},{"OBJECT_NAME":"STARLINK-31755","OBJECT_ID":"2024-080G","EPOCH":"2026-03-09T06:32:13.206048","MEAN_MOTION":15.27570554,"ECCENTRICITY":0.00010219,"INCLINATION":43.0029,"RA_OF_ASC_NODE":44.1685,"ARG_OF_PERICENTER":284.0314,"MEAN_ANOMALY":76.0424,"EPHEMERIS_TYPE":0,"CLASSIFICATION_TYPE":"U","NORAD_CAT_ID":59607,"ELEMENT_SET_NO":999,"REV_AT_EPOCH":10442,"BSTAR":4.3761129e-5,"MEAN_MOTION_DOT":9.42e-6,"MEAN_MOTION_DDOT":0}]
